[{"OBJECT_NAME":"STARLINK-5003","OBJECT_ID":"2022-119V","EPOCH":"2026-03-09T23:12:51.000480","MEAN_MOTION":15.08828143,"ECCENTRICITY":0.00013214,"INCLINATION":53.218,"RA_OF_ASC_NODE":313.0955,"ARG_OF_PERICENTER":93.5218,"MEAN_ANOMALY":266.5925,"EPHEMERIS_TYPE":0,"CLASSIFICATION_TYPE":"U","NORAD_CAT_ID":53905,"ELEMENT_SET_NO":999,"REV_AT_EPOCH":19186,"BSTAR":4.3406634e-5,"MEAN_MOTION_DOT":4.03e-6,"MEAN_MOTION_DDOT":0},{"OBJECT_NAME":"CZ-6A DEB","OBJECT_ID":"2022-151AEC","EPOCH":"2026-03-09T16:07:43.414464","MEAN_MOTION":15.01082395,"ECCENTRICITY":0.0040922,"INCLINATION":98.632,"RA_OF_ASC_NODE":144.2747,"ARG_OF_PERICENTER":190.1613,"MEAN_ANOMALY":169.8786,"EPHEMERIS_TYPE":0,"CLASSIFICATION_TYPE":"U","NORAD_CAT_ID":56604,"ELEMENT_SET_NO":999,"REV_AT_EPOCH":16341,"BSTAR":0.005850488,"MEAN_MOTION_DOT":0.00076879,"MEAN_MOTION_DDOT":0}]
